WFOV (USA 332)          
1 52940U 22073A   23017.59922534 -.00000343  00000+0  00000+0 0  9995
2 52940   0.4935  96.8086 0003820 221.3216 133.6126  1.00269034  1862
TIANLIAN 2-03           
1 53100U 22078A   23016.93608214  .00000096  00000+0  00000+0 0  9996
2 53100   2.5522 282.9842 0001496  92.1857  88.5021  1.00272141  2042
SBIRS GEO-6 (USA 336)   
1 53355U 22092A   23016.74747149  .00000144  00000+0  00000+0 0  9998
2 53355   6.2622 311.7274 0003261 337.6626 310.6150  1.00271948  1729
CHINASAT 1E (ZX 1E)     
1 53813U 22112A   23017.16532594 -.00000127  00000+0  00000+0 0  9995
2 53813   1.2016 279.0421 0003083  18.0720 320.1409  1.00272654  1332
SES-20                  
1 53960U 22123A   23013.68582824 -.00000080  00000+0  00000+0 0  9992
2 53960   0.0623 118.0584 0000550 171.9096 326.6979  1.00268757  1005
SES-21                  
1 53961U 22123B   23016.69271760  .00000091  00000+0  00000+0 0  9992
2 53961   0.0306  51.0275 0000710 255.2306 288.0339  1.00269506  1054
GALAXY 33 (G-33)        
1 54026U 22128A   23017.14841111  .00000099  00000+0  00000+0 0  9992
2 54026   0.0168  15.9364 0001900 281.9708  98.8192  1.00274481  1248
GALAXY 34 (G-34)        
1 54027U 22128B   23017.03545484  .00000079  00000+0  00000+0 0  9993
2 54027   0.0141   8.2572 0001948  58.7416 293.0218  1.00271013  1273
ANGOSAT 2               
1 54033U 22131A   23016.86678601  .00000156  00000+0  00000+0 0  9998
2 54033   0.0133 122.1050 0000162 341.0733 347.8673  1.00270274   961
CHINASAT 19 (ZX 19)     
1 54230U 22148A   23016.82311639 -.00000058  00000+0  00000+0 0  9998
2 54230   0.0345 111.7573 0006791 159.0325 304.9447  1.00271588   857
GALAXY 31 (G-31)        
1 54243U 22153A   23016.69271760  .00000067  00000+0  00000+0 0  9992
2 54243   0.0802 259.5059 0002006  41.6771 293.1244  1.00469141   639
GALAXY 32 (G-32)        
1 54244U 22153B   23013.69077167  .00000129  00000+0  00000+0 0  9994
2 54244   0.0168  88.6440 0008629 194.6771 290.5854  1.00591798   616
METEOSAT-12 (MTG-1)     
1 54743U 22170C   23016.93329286 -.00000007  00000+0  00000+0 0  9995
2 54743   0.9242 298.6292 0000471 133.6169  16.4708  1.00273658   470
